STARLINK-31269          
1 58844U 24017U   26068.84994161 -.00000033  00000+0  10997-4 0  9993
2 58844  53.1600 293.7026 0001055  88.4510 271.6611 15.30193277118790
FLOCK 4G-13             
1 62621U 25009N   26068.70638971  .00053076  00000+0  16695-2 0  9995
2 62621  97.4019 151.0918 0003801 292.7207  67.3633 15.32770015 63700
