[{"OBJECT_NAME":"STARLINK-31269","OBJECT_ID":"2024-017U","EPOCH":"2026-03-09T20:23:54.955104","MEAN_MOTION":15.30193278,"ECCENTRICITY":0.00010546,"INCLINATION":53.16,"RA_OF_ASC_NODE":293.7026,"ARG_OF_PERICENTER":88.451,"MEAN_ANOMALY":271.6611,"EPHEMERIS_TYPE":0,"CLASSIFICATION_TYPE":"U","NORAD_CAT_ID":58844,"ELEMENT_SET_NO":999,"REV_AT_EPOCH":11879,"BSTAR":1.0997138e-5,"MEAN_MOTION_DOT":-3.3e-7,"MEAN_MOTION_DDOT":0},{"OBJECT_NAME":"FLOCK 4G-13","OBJECT_ID":"2025-009N","EPOCH":"2026-03-09T16:57:12.071808","MEAN_MOTION":15.32770015,"ECCENTRICITY":0.0003801,"INCLINATION":97.4019,"RA_OF_ASC_NODE":151.0918,"ARG_OF_PERICENTER":292.7207,"MEAN_ANOMALY":67.3633,"EPHEMERIS_TYPE":0,"CLASSIFICATION_TYPE":"U","NORAD_CAT_ID":62621,"ELEMENT_SET_NO":999,"REV_AT_EPOCH":6370,"BSTAR":0.0016695386,"MEAN_MOTION_DOT":0.00053076,"MEAN_MOTION_DDOT":0}]
